*******************************************************************************
JPL/HORIZONS                  23694 (1997 KZ3)             2013-Sep-09 10:33:04
Rec #: 23694 (+COV)   Soln.date: 2013-Aug-05_20:26:45    # obs: 504 (1991-2013)
 
FK5/J2000.0 helio. ecliptic osc. elements (au, days, deg., period=Julian yrs): 
 
  EPOCH=  2453967.5 ! 2006-Aug-20.00 (CT)          Residual RMS= .43268        
   EC= .03586315357601667  QR= 5.077437364000237   TP= 2455792.4015043178      
   OM= 81.65601374715591   W=  221.8621817792295   IN= 9.764574886896721       
   A= 5.266303619483714    MA= 211.1719943409838   ADIST= 5.455169874967191    
   PER= 12.08557           N= .08155399100000001   ANGMOM= .039450719          
   DAN= 5.40386            DDN= 5.12271            L= 303.1029975              
   B= -6.4987308           MOID= 4.06850004        TP= 2011-Aug-18.9015043178  
 
Asteroid physical parameters (km, seconds, rotational period in hours):        
   GM= n.a.                RAD= n.a.               ROTPER= n.a.                
   H= 11.4                 G= .150                 B-V= n.a.                   
                           ALBEDO= n.a.            STYP= n.a.                  
 
ASTEROID comments: 
1: soln ref.= JPL#2, OCC=0
2: source=ORB
*******************************************************************************
 

 

*******************************************************************************
Ephemeris / WWW_USER Mon Sep  9 10:33:05 2013 Pasadena, USA      / Horizons    
*******************************************************************************
Target body name: 23694 (1997 KZ3)                {source: JPL#2}
Center body name: Earth (399)                     {source: DE-0431LE-0431}
Center-site name: San Pedro Martir
*******************************************************************************
Start time      : A.D. 2013-Jan-01 00:00:00.0000 UT      
Stop  time      : A.D. 2013-Dec-31 00:00:00.0000 UT      
Step-size       : 1440 minutes
*******************************************************************************
Target pole/equ : No model available
Target radii    : (unavailable)                                                
Center geodetic : 244.536700,31.0434585,2.8281109 {E-lon(deg),Lat(deg),Alt(km)}
Center cylindric: 244.536700,5471.93108,3271.4810 {E-lon(deg),Dxy(km),Dz(km)}
Center pole/equ : High-precision EOP model        {East-longitude +}
Center radii    : 6378.1 x 6378.1 x 6356.8 km     {Equator, meridian, pole}    
Target primary  : Sun
Vis. interferer : MOON (R_eq= 1737.400) km        {source: DE-0431LE-0431}
Rel. light bend : Sun, EARTH                      {source: DE-0431LE-0431}
Rel. lght bnd GM: 1.3271E+11, 3.9860E+05 km^3/s^2                              
Small-body perts: Yes                             {source: SB431-BIG16}
Atmos refraction: NO (AIRLESS)
RA format       : DEG
Time format     : BOTH
EOP file        : eop.130906.p131128                                           
EOP coverage    : DATA-BASED 1962-JAN-20 TO 2013-SEP-06. PREDICTS-> 2013-NOV-27
Units conversion: 1 au= 149597870.700 km, c= 299792.458 km/s, 1 day= 86400.0 s 
Table cut-offs 1: Elevation (-90.0deg=NO ),Airmass (>38.000=NO), Daylight (NO )
Table cut-offs 2: Solar Elongation (  0.0,180.0=NO ),Local Hour Angle( 0.0=NO )
*******************************************************************************
Initial FK5/J2000.0 heliocentric ecliptic osculating elements (au, days, deg.):
  EPOCH=  2453967.5 ! 2006-Aug-20.00 (CT)          Residual RMS= .43268        
   EC= .03586315357601667  QR= 5.077437364000237   TP= 2455792.4015043178      
   OM= 81.65601374715591   W=  221.8621817792295   IN= 9.764574886896721       
Asteroid physical parameters (km, seconds, rotational period in hours):        
   GM= n.a.                RAD= n.a.               ROTPER= n.a.                
   H= 11.4                 G= .150                 B-V= n.a.                   
                           ALBEDO= n.a.            STYP= n.a.                  
************************************************************************************************************
 Date__(UT)__HR:MN Date_________JDUT     R.A._(J2000.0)_DEC. dRA*cosD d(DEC)/dt            delta      deldot
************************************************************************************************************
$$SOE
 2013-Apr-13 00:00 2456395.500000000 *m    4.15269  -7.21046 31.28506  12.65369 6.02149285717643  -8.8982709
 2013-Apr-14 00:00 2456396.500000000 *m    4.36297  -7.12660 31.21487  12.57479 6.01603382680407  -9.2236412
 2013-Apr-15 00:00 2456397.500000000 *m    4.57270  -7.04327 31.14168  12.49450 6.01038704583518  -9.5468601
 2013-Apr-16 00:00 2456398.500000000 *m    4.78186  -6.96047 31.06555  12.41286 6.00455381877724  -9.8678602
 2013-Apr-17 00:00 2456399.500000000 *m    4.99044  -6.87822 30.98655  12.32991 5.99853548578474 -10.1865852
 2013-Apr-18 00:00 2456400.500000000 *m    5.19841  -6.79652 30.90473  12.24566 5.99233341707160 -10.5029877
 2013-Apr-19 00:00 2456401.500000000 *m    5.40575  -6.71539 30.82015  12.16014 5.98594900829717 -10.8170277
 2013-Apr-20 00:00 2456402.500000000 *m    5.61246  -6.63483 30.73288  12.07337 5.97938367557489 -11.1286754
 2013-Apr-21 00:00 2456403.500000000 *m    5.81850  -6.55484 30.64298  11.98539 5.97263884851920 -11.4379155
 2013-Apr-22 00:00 2456404.500000000 *m    6.02387  -6.47544 30.55054  11.89620 5.96571595973247 -11.7447548
 2013-Apr-23 00:00 2456405.500000000 *m    6.22855  -6.39664 30.45564  11.80583 5.95861642955565 -12.0492310
 2013-Apr-24 00:00 2456406.500000000 *     6.43252  -6.31844 30.35835  11.71429 5.95134164605175 -12.3514194
 2013-Apr-25 00:00 2456407.500000000 *     6.63578  -6.24085 30.25871  11.62156 5.94389294226385 -12.6514351
 2013-Apr-26 00:00 2456408.500000000 *     6.83829  -6.16388 30.15675  11.52762 5.93627157546910 -12.9494235
 2013-Apr-27 00:00 2456409.500000000 *     7.04006  -6.08754 30.05242  11.43243 5.92847871518754 -13.2455390
 2013-Apr-28 00:00 2456410.500000000 *     7.24105  -6.01183 29.94563  11.33593 5.92051544628293 -13.5399154
 2013-Apr-29 00:00 2456411.500000000 *     7.44127  -5.93676 29.83621  11.23804 5.91238278963398 -13.8326366
 2013-Apr-30 00:00 2456412.500000000 *     7.64068  -5.86235 29.72401  11.13870 5.90408173692260 -14.1237186
 2013-May-01 00:00 2456413.500000000 *     7.83927  -5.78861 29.60882  11.03785 5.89561329141479 -14.4131065
 2013-May-02 00:00 2456414.500000000 *     8.03703  -5.71553 29.49048  10.93544 5.88697850585740 -14.7006869
 2013-May-03 00:00 2456415.500000000 *     8.23392  -5.64315 29.36885  10.83146 5.87817851152461 -14.9863048
 2013-May-04 00:00 2456416.500000000 *     8.42994  -5.57145 29.24382  10.72590 5.86921453660700 -15.2697825
 2013-May-05 00:00 2456417.500000000 *     8.62504  -5.50046 29.11531  10.61876 5.86008791522492 -15.5509332
 2013-May-06 00:00 2456418.500000000 *     8.81923  -5.43019 28.98326  10.51006 5.85080008957374 -15.8295711
 2013-May-07 00:00 2456419.500000000 *     9.01246  -5.36065 28.84765  10.39982 5.84135260752165 -16.1055171
 2013-May-08 00:00 2456420.500000000 *m    9.20472  -5.29184 28.70847  10.28808 5.83174711723565 -16.3786038
 2013-May-09 00:00 2456421.500000000 *m    9.39598  -5.22378 28.56573  10.17486 5.82198535973714 -16.6486777
 2013-May-10 00:00 2456422.500000000 *m    9.58622  -5.15647 28.41946  10.06021 5.81206915992496 -16.9156024
 2013-May-11 00:00 2456423.500000000 *m    9.77542  -5.08993 28.26970  9.944168 5.80200041657464 -17.1792589
 2013-May-12 00:00 2456424.500000000 *m    9.96355  -5.02416 28.11648  9.826762 5.79178109193374 -17.4395463
 2013-May-13 00:00 2456425.500000000 *m   10.15060  -4.95918 27.95986  9.708033 5.78141320161189 -17.6963807
 2013-May-14 00:00 2456426.500000000 *m   10.33654  -4.89499 27.79988  9.588011 5.77089880540477 -17.9496927
 2013-May-15 00:00 2456427.500000000 *m   10.52135  -4.83160 27.63660  9.466728 5.76023999943590 -18.1994257
 2013-May-16 00:00 2456428.500000000 *m   10.70500  -4.76902 27.47006  9.344211 5.74943890960683 -18.4455331
 2013-May-17 00:00 2456429.500000000 *m   10.88748  -4.70726 27.30033  9.220489 5.73849768590722 -18.6879780
 2013-May-18 00:00 2456430.500000000 *m   11.06877  -4.64632 27.12745  9.095588 5.72741849668664 -18.9267342
 2013-May-19 00:00 2456431.500000000 *m   11.24884  -4.58622 26.95149  8.969533 5.71620352161572 -19.1617897
 2013-May-20 00:00 2456432.500000000 *m   11.42768  -4.52696 26.77253  8.842349 5.70485494185046 -19.3931525
 2013-May-21 00:00 2456433.500000000 *m   11.60527  -4.46855 26.59062  8.714054 5.69337492602012 -19.6208593
 2013-May-22 00:00 2456434.500000000 *m   11.78158  -4.41099 26.40585  8.584659 5.68176561141964 -19.8449832
 2013-May-23 00:00 2456435.500000000 *    11.95660  -4.35430 26.21825  8.454162 5.67002908155894 -20.0656372
 2013-May-24 00:00 2456436.500000000 *    12.13032  -4.29847 26.02784  8.322539 5.65816734403825 -20.2829690
 2013-May-25 00:00 2456437.500000000 *    12.30271  -4.24353 25.83456  8.189746 5.64618231575322 -20.4971405
 2013-May-26 00:00 2456438.500000000 *    12.47375  -4.18947 25.63830  8.055718 5.63407582357333 -20.7082952
 2013-May-27 00:00 2456439.500000000 *    12.64342  -4.13630 25.43888  7.920380 5.62184962561985 -20.9165218
 2013-May-28 00:00 2456440.500000000 *    12.81171  -4.08405 25.23608  7.783660 5.60950545111906 -21.1218289
 2013-May-29 00:00 2456441.500000000 *    12.97858  -4.03270 25.02969  7.645500 5.59704504928209 -21.3241396
 2013-May-30 00:00 2456442.500000000 *    13.14403  -3.98228 24.81950  7.505863 5.58447023473331 -21.5233080
 2013-May-31 00:00 2456443.500000000 *    13.30801  -3.93279 24.60535  7.364739 5.57178292025498 -21.7191445
 2013-Jun-01 00:00 2456444.500000000 *    13.47051  -3.88424 24.38715  7.222132 5.55898513403521 -21.9114426
 2013-Jun-02 00:00 2456445.500000000 *    13.63149  -3.83665 24.16481  7.078067 5.54607902391157 -22.0999966
